{"type": "FeatureCollection", "features": [ {"type": "Feature", "properties": {"norad_id": 40315, "name": "COSMOS 2501 (702K)", "group": "gnss", "lat": 19.678998423830233, "lon": -153.24070176579414, "alt_km": 19179.11242345607, "timestamp": "2025-12-21T11:31:43.097313+00:00", "meta": {"OBJECT_NAME": "COSMOS 2501 (702K)", "OBJECT_ID": "2014-075A", "EPOCH": "2025-12-19T02:31:27.452640", "MEAN_MOTION": 2.13101513, "ECCENTRICITY": 0.0020099, "INCLINATION": 63.6146, "RA_OF_ASC_NODE": 196.6046, "ARG_OF_PERICENTER": 204.1838, "MEAN_ANOMALY": 155.7988, "EPHEMERIS_TYPE": 0, "CLASSIFICATION_TYPE": "U", "NORAD_CAT_ID": 40315, "ELEMENT_SET_NO": 999, "REV_AT_EPOCH": 8601, "BSTAR": 0, "MEAN_MOTION_DOT": 1.06e-06, "MEAN_MOTION_DDOT": 0}, "tle": {"line1": "1 40315U 14075A   25353.10517885  .00000106  00000+0  00000+0 0  9998", "line2": "2 40315  63.6146 196.6046 0020099 204.1838 155.7988  2.13101513 86014"}}, "geometry": {"type": "Point", "coordinates": [-153.24070176579414, 19.678998423830233]}}, {"type": "Feature", "properties": {"norad_id": 40534, "name": "GPS BIIF-9  (PRN 26)", "group": "gnss", "lat": -44.20871154823819, "lon": 164.7972123837541, "alt_km": 20230.53542511445, "timestamp": "2025-12-21T11:31:43.097324+00:00", "meta": {"OBJECT_NAME": "GPS BIIF-9  (PRN 26)", "OBJECT_ID": "2015-013A", "EPOCH": "2025-12-19T01:41:54.527136", "MEAN_MOTION": 2.00562262, "ECCENTRICITY": 0.0107309, "INCLINATION": 53.1969, "RA_OF_ASC_NODE": 211.6279, "ARG_OF_PERICENTER": 38.6346, "MEAN_ANOMALY": 322.2232, "EPHEMERIS_TYPE": 0, "CLASSIFICATION_TYPE": "U", "NORAD_CAT_ID": 40534, "ELEMENT_SET_NO": 999, "REV_AT_EPOCH": 7821, "BSTAR": 0, "MEAN_MOTION_DOT": 8.5e-07, "MEAN_MOTION_DDOT": 0}, "tle": {"line1": "1 40534U 15013A   25353.07076999  .00000085  00000+0  00000+0 0  9992", "line2": "2 40534  53.1969 211.6279 0107309  38.6346 322.2232  2.00562262 78218"}}, "geometry": {"type": "Point", "coordinates": [164.7972123837541, -44.20871154823819]}}, {"type": "Feature", "properties": {"norad_id": 40544, "name": "GSAT0203 (GALILEO 7)", "group": "gnss", "lat": 1.3489467403913562, "lon": -12.686594200330493, "alt_km": 23221.209932762453, "timestamp": "2025-12-21T11:31:43.097335+00:00", "meta": {"OBJECT_NAME": "GSAT0203 (GALILEO 7)", "OBJECT_ID": "2015-017A", "EPOCH": "2025-12-20T07:18:34.773696", "MEAN_MOTION": 1.70475998, "ECCENTRICITY": 0.00064692, "INCLINATION": 56.8445, "RA_OF_ASC_NODE": 346.4738, "ARG_OF_PERICENTER": 274.1452, "MEAN_ANOMALY": 85.7909, "EPHEMERIS_TYPE": 0, "CLASSIFICATION_TYPE": "U", "NORAD_CAT_ID": 40544, "ELEMENT_SET_NO": 999, "REV_AT_EPOCH": 6615, "BSTAR": 0, "MEAN_MOTION_DOT": -7.1e-07, "MEAN_MOTION_DDOT": 0}, "tle": {"line1": "1 40544U 15017A   25354.30456914 -.00000071  00000+0  00000+0 0  9999", "line2": "2 40544  56.8445 346.4738 0006469 274.1452  85.7909  1.70475998 66152"}}, "geometry": {"type": "Point", "coordinates": [-12.686594200330493, 1.3489467403913562]}}, {"type": "Feature", "properties": {"norad_id": 40545, "name": "GSAT0204 (GALILEO 8)", "group": "gnss", "lat": -20.495340220339788, "lon": -179.4103965711944, "alt_km": 23216.24751198959, "timestamp": "2025-12-21T11:31:43.097346+00:00", "meta": {"OBJECT_NAME": "GSAT0204 (GALILEO 8)", "OBJECT_ID": "2015-017B", "EPOCH": "2025-12-20T13:26:28.826304", "MEAN_MOTION": 1.70475697, "ECCENTRICITY": 0.0006133, "INCLINATION": 56.8522, "RA_OF_ASC_NODE": 346.4847, "ARG_OF_PERICENTER": 266.5447, "MEAN_ANOMALY": 93.3948, "EPHEMERIS_TYPE": 0, "CLASSIFICATION_TYPE": "U", "NORAD_CAT_ID": 40545, "ELEMENT_SET_NO": 999, "REV_AT_EPOCH": 2920, "BSTAR": 0, "MEAN_MOTION_DOT": -7e-07, "MEAN_MOTION_DDOT": 0}, "tle": {"line1": "1 40545U 15017B   25354.56005586 -.00000070  00000+0  00000+0 0  9992", "line2": "2 40545  56.8522 346.4847 0006133 266.5447  93.3948  1.70475697 29206"}}, "geometry": {"type": "Point", "coordinates": [-179.4103965711944, -20.495340220339788]}}, {"type": "Feature", "properties": {"norad_id": 40549, "name": "BEIDOU-3S IGSO-1S (C31)", "group": "gnss", "lat": 41.18952611598462, "lon": -14.219646515918342, "alt_km": 35881.87497232428, "timestamp": "2025-12-21T11:31:43.097358+00:00", "meta": {"OBJECT_NAME": "BEIDOU-3S IGSO-1S (C31)", "OBJECT_ID": "2015-019A", "EPOCH": "2025-12-18T19:55:38.829792", "MEAN_MOTION": 1.00292047, "ECCENTRICITY": 0.0036331, "INCLINATION": 49.5404, "RA_OF_ASC_NODE": 297.6395, "ARG_OF_PERICENTER": 194.0028, "MEAN_ANOMALY": 349.3621, "EPHEMERIS_TYPE": 0, "CLASSIFICATION_TYPE": "U", "NORAD_CAT_ID": 40549, "ELEMENT_SET_NO": 999, "REV_AT_EPOCH": 3926, "BSTAR": 0, "MEAN_MOTION_DOT": -1.83e-06, "MEAN_MOTION_DDOT": 0}, "tle": {"line1": "1 40549U 15019A   25352.83031053 -.00000183  00000+0  00000+0 0  9999", "line2": "2 40549  49.5404 297.6395 0036331 194.0028 349.3621  1.00292047 39264"}}, "geometry": {"type": "Point", "coordinates": [-14.219646515918342, 41.18952611598462]}}, {"type": "Feature", "properties": {"norad_id": 40730, "name": "GPS BIIF-10 (PRN 08)", "group": "gnss", "lat": -3.6822660959745863, "lon": 97.07090250055127, "alt_km": 20455.90320114645, "timestamp": "2025-12-21T11:31:43.097373+00:00", "meta": {"OBJECT_NAME": "GPS BIIF-10 (PRN 08)", "OBJECT_ID": "2015-033A", "EPOCH": "2025-12-20T05:30:00.269856", "MEAN_MOTION": 2.0056532, "ECCENTRICITY": 0.01114012, "INCLINATION": 54.1241, "RA_OF_ASC_NODE": 274.4647, "ARG_OF_PERICENTER": 26.9904, "MEAN_ANOMALY": 333.6219, "EPHEMERIS_TYPE": 0, "CLASSIFICATION_TYPE": "U", "NORAD_CAT_ID": 40730, "ELEMENT_SET_NO": 999, "REV_AT_EPOCH": 7640, "BSTAR": 0, "MEAN_MOTION_DOT": -1.9e-07, "MEAN_MOTION_DDOT": 0}, "tle": {"line1": "1 40730U 15033A   25354.22916979 -.00000019  00000+0  00000+0 0  9999", "line2": "2 40730  54.1241 274.4647 0111401  26.9904 333.6219  2.00565320 76402"}}, "geometry": {"type": "Point", "coordinates": [97.07090250055127, -3.6822660959745863]}}, {"type": "Feature", "properties": {"norad_id": 40748, "name": "BEIDOU-3S M2S (C58)", "group": "gnss", "lat": -52.46356857416855, "lon": -117.35619479765718, "alt_km": 21501.565197051546, "timestamp": "2025-12-21T11:31:43.097385+00:00", "meta": {"OBJECT_NAME": "BEIDOU-3S M2S (C58)", "OBJECT_ID": "2015-037A", "EPOCH": "2025-12-21T01:20:10.891968", "MEAN_MOTION": 1.86229521, "ECCENTRICITY": 0.0011954, "INCLINATION": 55.0313, "RA_OF_ASC_NODE": 308.1781, "ARG_OF_PERICENTER": 270.2821, "MEAN_ANOMALY": 89.5753, "EPHEMERIS_TYPE": 0, "CLASSIFICATION_TYPE": "U", "NORAD_CAT_ID": 40748, "ELEMENT_SET_NO": 999, "REV_AT_EPOCH": 7080, "BSTAR": 0, "MEAN_MOTION_DOT": -6.4e-07, "MEAN_MOTION_DDOT": 0}, "tle": {"line1": "1 40748U 15037A   25355.05568162 -.00000064  00000+0  00000+0 0  9991", "line2": "2 40748  55.0313 308.1781 0011954 270.2821  89.5753  1.86229521 70800"}}, "geometry": {"type": "Point", "coordinates": [-117.35619479765718, -52.46356857416855]}}, {"type": "Feature", "properties": {"norad_id": 40749, "name": "BEIDOU-3S M1S (C57)", "group": "gnss", "lat": 38.04230789984763, "lon": 94.95994485951272, "alt_km": 21527.663505270983, "timestamp": "2025-12-21T11:31:43.097401+00:00", "meta": {"OBJECT_NAME": "BEIDOU-3S M1S (C57)", "OBJECT_ID": "2015-037B", "EPOCH": "2025-12-19T03:17:32.841888", "MEAN_MOTION": 1.86254044, "ECCENTRICITY": 0.0003631, "INCLINATION": 55.0296, "RA_OF_ASC_NODE": 308.2337, "ARG_OF_PERICENTER": 1.0538, "MEAN_ANOMALY": 358.9355, "EPHEMERIS_TYPE": 0, "CLASSIFICATION_TYPE": "U", "NORAD_CAT_ID": 40749, "ELEMENT_SET_NO": 999, "REV_AT_EPOCH": 7077, "BSTAR": 0, "MEAN_MOTION_DOT": -7.8e-07, "MEAN_MOTION_DDOT": 0}, "tle": {"line1": "1 40749U 15037B   25353.13718567 -.00000078  00000+0  00000+0 0  9990", "line2": "2 40749  55.0296 308.2337 0003631   1.0538 358.9355  1.86254044 70772"}}, "geometry": {"type": "Point", "coordinates": [94.95994485951272, 38.04230789984763]}}, {"type": "Feature", "properties": {"norad_id": 40889, "name": "GSAT0205 (GALILEO 9)", "group": "gnss", "lat": -10.757847261119396, "lon": -141.1140361498014, "alt_km": 23213.326744863847, "timestamp": "2025-12-21T11:31:43.097412+00:00", "meta": {"OBJECT_NAME": "GSAT0205 (GALILEO 9)", "OBJECT_ID": "2015-045A", "EPOCH": "2025-12-20T21:57:55.200672", "MEAN_MOTION": 1.70473188, "ECCENTRICITY": 0.0006095, "INCLINATION": 55.0008, "RA_OF_ASC_NODE": 226.5322, "ARG_OF_PERICENTER": 41.0262, "MEAN_ANOMALY": 319.1287, "EPHEMERIS_TYPE": 0, "CLASSIFICATION_TYPE": "U", "NORAD_CAT_ID": 40889, "ELEMENT_SET_NO": 999, "REV_AT_EPOCH": 6397, "BSTAR": 0, "MEAN_MOTION_DOT": 7.2e-07, "MEAN_MOTION_DDOT": 0}, "tle": {"line1": "1 40889U 15045A   25354.91522223  .00000072  00000+0  00000+0 0  9996", "line2": "2 40889  55.0008 226.5322 0006095  41.0262 319.1287  1.70473188 63971"}}, "geometry": {"type": "Point", "coordinates": [-141.1140361498014, -10.757847261119396]}}, {"type": "Feature", "properties": {"norad_id": 40890, "name": "GSAT0206 (GALILEO 10)", "group": "gnss", "lat": -25.342241594944387, "lon": 65.89919200174724, "alt_km": 23237.87405692864, "timestamp": "2025-12-21T11:31:43.097424+00:00", "meta": {"OBJECT_NAME": "GSAT0206 (GALILEO 10)", "OBJECT_ID": "2015-045B", "EPOCH": "2025-12-18T18:56:55.411008", "MEAN_MOTION": 1.70473154, "ECCENTRICITY": 0.00042207, "INCLINATION": 55.0004, "RA_OF_ASC_NODE": 226.586, "ARG_OF_PERICENTER": 42.9195, "MEAN_ANOMALY": 317.2206, "EPHEMERIS_TYPE": 0, "CLASSIFICATION_TYPE": "U", "NORAD_CAT_ID": 40890, "ELEMENT_SET_NO": 999, "REV_AT_EPOCH": 6396, "BSTAR": 0, "MEAN_MOTION_DOT": 6.4e-07, "MEAN_MOTION_DDOT": 0}, "tle": {"line1": "1 40890U 15045B   25352.78953022  .00000064  00000+0  00000+0 0  9997", "line2": "2 40890  55.0004 226.5860 0004220  42.9195 317.2206  1.70473154 63961"}}, "geometry": {"type": "Point", "coordinates": [65.89919200174724, -25.342241594944387]}}]}